{"fetched_at":"2026-07-22T07:09:52.304Z","source":"https://celestrak.org/NORAD/elements/gp.php?NAME=KINEIS&FORMAT=JSON","constellation":"kineis","records":[{"OBJECT_NAME":"KINEIS-1B","OBJECT_ID":"2024-114A","EPOCH":"2026-07-21T14:02:09.184128","CLASSIFICATION_TYPE":"U","MEAN_MOTION":14.80673041,"ECCENTRICITY":0.00024615,"INCLINATION":97.9828,"RA_OF_ASC_NODE":226.606,"ARG_OF_PERICENTER":23.2963,"MEAN_ANOMALY":336.836,"EPHEMERIS_TYPE":0,"NORAD_CAT_ID":60079,"ELEMENT_SET_NO":999,"REV_AT_EPOCH":11249,"BSTAR":0.000074297834,"MEAN_MOTION_DOT":0.00000518,"MEAN_MOTION_DDOT":0},{"OBJECT_NAME":"KINEIS-1C","OBJECT_ID":"2024-114C","EPOCH":"2026-07-21T14:50:34.580256","CLASSIFICATION_TYPE":"U","MEAN_MOTION":14.80674881,"ECCENTRICITY":0.00025633,"INCLINATION":97.9842,"RA_OF_ASC_NODE":226.4963,"ARG_OF_PERICENTER":86.7518,"MEAN_ANOMALY":273.3987,"EPHEMERIS_TYPE":0,"NORAD_CAT_ID":60081,"ELEMENT_SET_NO":999,"REV_AT_EPOCH":11247,"BSTAR":0.000071984861,"MEAN_MOTION_DOT":0.000005,"MEAN_MOTION_DDOT":0},{"OBJECT_NAME":"KINEIS-1D","OBJECT_ID":"2024-114D","EPOCH":"2026-07-21T14:37:51.498048","CLASSIFICATION_TYPE":"U","MEAN_MOTION":14.76367989,"ECCENTRICITY":0.00029711,"INCLINATION":97.988,"RA_OF_ASC_NODE":222.3704,"ARG_OF_PERICENTER":88.5694,"MEAN_ANOMALY":271.5856,"EPHEMERIS_TYPE":0,"NORAD_CAT_ID":60082,"ELEMENT_SET_NO":999,"REV_AT_EPOCH":11220,"BSTAR":0.000071676688,"MEAN_MOTION_DOT":0.00000447,"MEAN_MOTION_DDOT":0},{"OBJECT_NAME":"KINEIS-1E","OBJECT_ID":"2024-114E","EPOCH":"2026-07-21T13:38:47.046048","CLASSIFICATION_TYPE":"U","MEAN_MOTION":14.80701059,"ECCENTRICITY":0.00042357,"INCLINATION":97.8945,"RA_OF_ASC_NODE":225.4454,"ARG_OF_PERICENTER":96.6438,"MEAN_ANOMALY":263.5257,"EPHEMERIS_TYPE":0,"NORAD_CAT_ID":60083,"ELEMENT_SET_NO":999,"REV_AT_EPOCH":11247,"BSTAR":0.000084593933,"MEAN_MOTION_DOT":0.00000599,"MEAN_MOTION_DDOT":0},{"OBJECT_NAME":"KINEIS-1A","OBJECT_ID":"2024-114F","EPOCH":"2026-07-21T14:27:00.603648","CLASSIFICATION_TYPE":"U","MEAN_MOTION":14.80688429,"ECCENTRICITY":0.00050388,"INCLINATION":97.8918,"RA_OF_ASC_NODE":225.5699,"ARG_OF_PERICENTER":46.6691,"MEAN_ANOMALY":313.4941,"EPHEMERIS_TYPE":0,"NORAD_CAT_ID":60084,"ELEMENT_SET_NO":999,"REV_AT_EPOCH":11248,"BSTAR":0.000074832462,"MEAN_MOTION_DOT":0.00000524,"MEAN_MOTION_DDOT":0},{"OBJECT_NAME":"KINEIS-3C","OBJECT_ID":"2024-172A","EPOCH":"2026-07-21T06:10:30.270720","CLASSIFICATION_TYPE":"U","MEAN_MOTION":14.72303347,"ECCENTRICITY":0.00024761,"INCLINATION":98.0432,"RA_OF_ASC_NODE":291.795,"ARG_OF_PERICENTER":72.8384,"MEAN_ANOMALY":287.3094,"EPHEMERIS_TYPE":0,"NORAD_CAT_ID":61220,"ELEMENT_SET_NO":999,"REV_AT_EPOCH":9808,"BSTAR":0.0002078347,"MEAN_MOTION_DOT":0.00001264,"MEAN_MOTION_DDOT":0},{"OBJECT_NAME":"KINEIS-3D","OBJECT_ID":"2024-172B","EPOCH":"2026-07-20T18:35:46.621824","CLASSIFICATION_TYPE":"U","MEAN_MOTION":14.72297564,"ECCENTRICITY":0.00023263,"INCLINATION":98.0435,"RA_OF_ASC_NODE":291.3279,"ARG_OF_PERICENTER":75.9054,"MEAN_ANOMALY":284.2411,"EPHEMERIS_TYPE":0,"NORAD_CAT_ID":61221,"ELEMENT_SET_NO":999,"REV_AT_EPOCH":9829,"BSTAR":0.00011799232,"MEAN_MOTION_DOT":0.00000696,"MEAN_MOTION_DDOT":0},{"OBJECT_NAME":"KINEIS-3E","OBJECT_ID":"2024-172C","EPOCH":"2026-07-21T12:07:45.480864","CLASSIFICATION_TYPE":"U","MEAN_MOTION":14.72290371,"ECCENTRICITY":0.00016548,"INCLINATION":98.0426,"RA_OF_ASC_NODE":292.0314,"ARG_OF_PERICENTER":85.0243,"MEAN_ANOMALY":275.1153,"EPHEMERIS_TYPE":0,"NORAD_CAT_ID":61222,"ELEMENT_SET_NO":999,"REV_AT_EPOCH":9840,"BSTAR":0.00020577747,"MEAN_MOTION_DOT":0.0000125,"MEAN_MOTION_DDOT":0},{"OBJECT_NAME":"KINEIS-3A","OBJECT_ID":"2024-172D","EPOCH":"2026-07-21T11:43:43.169376","CLASSIFICATION_TYPE":"U","MEAN_MOTION":14.72323556,"ECCENTRICITY":0.0001721,"INCLINATION":98.0423,"RA_OF_ASC_NODE":292.1131,"ARG_OF_PERICENTER":28.1291,"MEAN_ANOMALY":332.0009,"EPHEMERIS_TYPE":0,"NORAD_CAT_ID":61223,"ELEMENT_SET_NO":999,"REV_AT_EPOCH":9782,"BSTAR":0.00020435671,"MEAN_MOTION_DOT":0.00001242,"MEAN_MOTION_DDOT":0},{"OBJECT_NAME":"KINEIS-3B","OBJECT_ID":"2024-172E","EPOCH":"2026-07-21T12:56:39.076224","CLASSIFICATION_TYPE":"U","MEAN_MOTION":14.72309936,"ECCENTRICITY":0.00011232,"INCLINATION":98.0417,"RA_OF_ASC_NODE":292.1849,"ARG_OF_PERICENTER":11.3955,"MEAN_ANOMALY":348.7277,"EPHEMERIS_TYPE":0,"NORAD_CAT_ID":61224,"ELEMENT_SET_NO":999,"REV_AT_EPOCH":9840,"BSTAR":0.00020545704,"MEAN_MOTION_DOT":0.00001249,"MEAN_MOTION_DDOT":0},{"OBJECT_NAME":"KINEIS-5C","OBJECT_ID":"2024-219A","EPOCH":"2026-07-21T14:01:37.546176","CLASSIFICATION_TYPE":"U","MEAN_MOTION":14.7232016,"ECCENTRICITY":0.00046465,"INCLINATION":97.9075,"RA_OF_ASC_NODE":0.4876,"ARG_OF_PERICENTER":155.1126,"MEAN_ANOMALY":205.0307,"EPHEMERIS_TYPE":0,"NORAD_CAT_ID":62081,"ELEMENT_SET_NO":999,"REV_AT_EPOCH":8881,"BSTAR":0.00008337216,"MEAN_MOTION_DOT":0.00000479,"MEAN_MOTION_DDOT":0},{"OBJECT_NAME":"KINEIS-5D","OBJECT_ID":"2024-219B","EPOCH":"2026-07-21T16:16:31.950912","CLASSIFICATION_TYPE":"U","MEAN_MOTION":14.72501376,"ECCENTRICITY":0.00057521,"INCLINATION":97.9187,"RA_OF_ASC_NODE":0.6573,"ARG_OF_PERICENTER":149.3727,"MEAN_ANOMALY":210.7817,"EPHEMERIS_TYPE":0,"NORAD_CAT_ID":62082,"ELEMENT_SET_NO":999,"REV_AT_EPOCH":8883,"BSTAR":0.00011347519,"MEAN_MOTION_DOT":0.00000672,"MEAN_MOTION_DDOT":0},{"OBJECT_NAME":"KINEIS-5E","OBJECT_ID":"2024-219C","EPOCH":"2026-07-21T15:05:34.805184","CLASSIFICATION_TYPE":"U","MEAN_MOTION":14.72304422,"ECCENTRICITY":0.0007225,"INCLINATION":97.9032,"RA_OF_ASC_NODE":0.6215,"ARG_OF_PERICENTER":146.0671,"MEAN_ANOMALY":214.1,"EPHEMERIS_TYPE":0,"NORAD_CAT_ID":62083,"ELEMENT_SET_NO":999,"REV_AT_EPOCH":8883,"BSTAR":0.000078123747,"MEAN_MOTION_DOT":0.00000445,"MEAN_MOTION_DDOT":0},{"OBJECT_NAME":"KINEIS-5A","OBJECT_ID":"2024-219D","EPOCH":"2026-07-21T14:34:22.522368","CLASSIFICATION_TYPE":"U","MEAN_MOTION":14.72285609,"ECCENTRICITY":0.00042616,"INCLINATION":97.8974,"RA_OF_ASC_NODE":0.8754,"ARG_OF_PERICENTER":178.7174,"MEAN_ANOMALY":181.4045,"EPHEMERIS_TYPE":0,"NORAD_CAT_ID":62084,"ELEMENT_SET_NO":999,"REV_AT_EPOCH":8883,"BSTAR":0.00011646888,"MEAN_MOTION_DOT":0.00000688,"MEAN_MOTION_DDOT":0},{"OBJECT_NAME":"KINEIS-5B","OBJECT_ID":"2024-219E","EPOCH":"2026-07-21T15:12:39.356640","CLASSIFICATION_TYPE":"U","MEAN_MOTION":14.78394347,"ECCENTRICITY":0.00028417,"INCLINATION":98.0097,"RA_OF_ASC_NODE":6.2749,"ARG_OF_PERICENTER":132.8786,"MEAN_ANOMALY":227.2664,"EPHEMERIS_TYPE":0,"NORAD_CAT_ID":62085,"ELEMENT_SET_NO":999,"REV_AT_EPOCH":8909,"BSTAR":0.00011284674,"MEAN_MOTION_DOT":0.0000077,"MEAN_MOTION_DDOT":0},{"OBJECT_NAME":"KINEIS-2C","OBJECT_ID":"2025-028B","EPOCH":"2026-07-21T09:53:24.099936","CLASSIFICATION_TYPE":"U","MEAN_MOTION":14.7344078,"ECCENTRICITY":0.00046545,"INCLINATION":98.1226,"RA_OF_ASC_NODE":256.8416,"ARG_OF_PERICENTER":143.4693,"MEAN_ANOMALY":216.6833,"EPHEMERIS_TYPE":0,"NORAD_CAT_ID":62929,"ELEMENT_SET_NO":999,"REV_AT_EPOCH":7765,"BSTAR":0.00016621059,"MEAN_MOTION_DOT":0.00001027,"MEAN_MOTION_DDOT":0}]}
