{"epoch":1784710044,"count":18256,"objects":[{"id":"60079","name":"KINEIS-1B","type":"PAYLOAD","l1":"1 60079U 24114A   26202.58482852  .00000518  00000-0  74298-4 0  9996","l2":"2 60079  97.9828 226.6060 0002462  23.2963 336.8360 14.80673041112498"},{"id":"60081","name":"KINEIS-1C","type":"PAYLOAD","l1":"1 60081U 24114C   26202.61845579  .00000500  00000-0  71985-4 0  9993","l2":"2 60081  97.9842 226.4963 0002563  86.7518 273.3987 14.80674881112470"},{"id":"60082","name":"KINEIS-1D","type":"PAYLOAD","l1":"1 60082U 24114D   26202.60962382  .00000447  00000-0  71677-4 0  9993","l2":"2 60082  97.9880 222.3704 0002971  88.5694 271.5856 14.76367989112208"},{"id":"60083","name":"KINEIS-1E","type":"PAYLOAD","l1":"1 60083U 24114E   26202.56860007  .00000599  00000-0  84594-4 0  9990","l2":"2 60083  97.8945 225.4454 0004236  96.6438 263.5257 14.80701059112478"},{"id":"60084","name":"KINEIS-1A","type":"PAYLOAD","l1":"1 60084U 24114F   26202.60209032  .00000524  00000-0  74832-4 0  9993","l2":"2 60084  97.8918 225.5699 0005039  46.6691 313.4941 14.80688429112480"},{"id":"61220","name":"KINEIS-3C","type":"PAYLOAD","l1":"1 61220U 24172A   26202.25729480  .00001264  00000-0  20783-3 0  9992","l2":"2 61220  98.0432 291.7950 0002476  72.8384 287.3094 14.72303347 98085"},{"id":"61221","name":"KINEIS-3D","type":"PAYLOAD","l1":"1 61221U 24172B   26201.77484516  .00000696  00000-0  11799-3 0  9992","l2":"2 61221  98.0435 291.3279 0002326  75.9054 284.2411 14.72297564 98296"},{"id":"61222","name":"KINEIS-3E","type":"PAYLOAD","l1":"1 61222U 24172C   26202.50538751  .00001250  00000-0  20578-3 0  9998","l2":"2 61222  98.0426 292.0314 0001655  85.0243 275.1153 14.72290371 98405"},{"id":"61223","name":"KINEIS-3A","type":"PAYLOAD","l1":"1 61223U 24172D   26202.48869409  .00001242  00000-0  20436-3 0  9997","l2":"2 61223  98.0423 292.1131 0001721  28.1291 332.0009 14.72323556 97826"},{"id":"61224","name":"KINEIS-3B","type":"PAYLOAD","l1":"1 61224U 24172E   26202.53934116  .00001249  00000-0  20546-3 0  9991","l2":"2 61224  98.0417 292.1849 0001123  11.3955 348.7277 14.72309936 98405"},{"id":"62081","name":"KINEIS-5C","type":"PAYLOAD","l1":"1 62081U 24219A   26202.58446234  .00000479  00000-0  83372-4 0  9990","l2":"2 62081  97.9075   0.4876 0004647 155.1126 205.0307 14.72320160 88811"},{"id":"62082","name":"KINEIS-5D","type":"PAYLOAD","l1":"1 62082U 24219B   26202.67814758  .00000672  00000-0  11348-3 0  9999","l2":"2 62082  97.9187   0.6573 0005752 149.3727 210.7817 14.72501376 88833"},{"id":"62083","name":"KINEIS-5E","type":"PAYLOAD","l1":"1 62083U 24219C   26202.62887506  .00000445  00000-0  78124-4 0  9990","l2":"2 62083  97.9032   0.6215 0007225 146.0671 214.1000 14.72304422 88830"},{"id":"62084","name":"KINEIS-5A","type":"PAYLOAD","l1":"1 62084U 24219D   26202.60720512  .00000688  00000-0  11647-3 0  9997","l2":"2 62084  97.8974   0.8754 0004262 178.7174 181.4045 14.72285609 88833"},{"id":"62085","name":"KINEIS-5B","type":"PAYLOAD","l1":"1 62085U 24219E   26202.63378885  .00000770  00000-0  11285-3 0  9993","l2":"2 62085  98.0097   6.2749 0002842 132.8786 227.2664 14.78394347 89090"},{"id":"62929","name":"KINEIS-2C","type":"PAYLOAD","l1":"1 62929U 25028B   26202.41208449  .00001027  00000-0  16621-3 0  9998","l2":"2 62929  98.1226 256.8416 0004655 143.4693 216.6833 14.73440780 77652"}]}